{"type": "FeatureCollection", "features": [ {"type": "Feature", "properties": {"norad_id": 61736, "name": "IONOSFERA-M 2", "group": "resource", "lat": -65.72481843456993, "lon": 5.066972472264851, "alt_km": 823.9138970102704, "timestamp": "2025-12-01T03:58:49.209423+00:00", "meta": {"OBJECT_NAME": "IONOSFERA-M 2", "OBJECT_ID": "2024-199B", "EPOCH": "2025-11-30T21:45:29.907360", "MEAN_MOTION": 14.22711808, "ECCENTRICITY": 0.0001301, "INCLINATION": 98.7416, "RA_OF_ASC_NODE": 204.7575, "ARG_OF_PERICENTER": 124.407, "MEAN_ANOMALY": 235.7231, "EPHEMERIS_TYPE": 0, "CLASSIFICATION_TYPE": "U", "NORAD_CAT_ID": 61736, "ELEMENT_SET_NO": 999, "REV_AT_EPOCH": 10263, "BSTAR": 5.3408e-05, "MEAN_MOTION_DOT": 7.5e-07, "MEAN_MOTION_DDOT": 0, "GROUP": "resource"}, "tle": {"line1": "1 61736U 24199B   25334.90659615  .00000075  00000+0  53408-4 0  9991", "line2": "2 61736  98.7416 204.7575 0001301 124.4070 235.7231 14.22711808102632"}}, "geometry": {"type": "Point", "coordinates": [5.066972472264851, -65.72481843456993]}}, {"type": "Feature", "properties": {"norad_id": 63772, "name": "BIOMASS", "group": "resource", "lat": 14.829469940416889, "lon": 158.18973437575056, "alt_km": 669.536016022993, "timestamp": "2025-12-01T03:58:49.209617+00:00", "meta": {"OBJECT_NAME": "BIOMASS", "OBJECT_ID": "2025-090A", "EPOCH": "2025-11-30T18:05:38.484960", "MEAN_MOTION": 14.67535416, "ECCENTRICITY": 0.0001192, "INCLINATION": 98.071, "RA_OF_ASC_NODE": 159.937, "ARG_OF_PERICENTER": 86.413, "MEAN_ANOMALY": 273.7211, "EPHEMERIS_TYPE": 0, "CLASSIFICATION_TYPE": "U", "NORAD_CAT_ID": 63772, "ELEMENT_SET_NO": 999, "REV_AT_EPOCH": 3158, "BSTAR": 0.00026374, "MEAN_MOTION_DOT": 1.448e-05, "MEAN_MOTION_DDOT": 0, "GROUP": "resource"}, "tle": {"line1": "1 63772U 25090A   25334.75391765  .00001448  00000+0  26374-3 0  9992", "line2": "2 63772  98.0710 159.9370 0001192  86.4130 273.7211 14.67535416 31583"}}, "geometry": {"type": "Point", "coordinates": [158.18973437575056, 14.829469940416889]}}, {"type": "Feature", "properties": {"norad_id": 64694, "name": "GOSAT-GW (IBUKI GW)", "group": "resource", "lat": -43.14396426527443, "lon": 83.2762894849075, "alt_km": 676.3118791099896, "timestamp": "2025-12-01T03:58:49.209712+00:00", "meta": {"OBJECT_NAME": "GOSAT-GW (IBUKI GW)", "OBJECT_ID": "2025-141A", "EPOCH": "2025-11-30T05:41:32.267328", "MEAN_MOTION": 14.67567435, "ECCENTRICITY": 0.00014369, "INCLINATION": 98.0401, "RA_OF_ASC_NODE": 269.9775, "ARG_OF_PERICENTER": 82.921, "MEAN_ANOMALY": 277.2158, "EPHEMERIS_TYPE": 0, "CLASSIFICATION_TYPE": "U", "NORAD_CAT_ID": 64694, "ELEMENT_SET_NO": 999, "REV_AT_EPOCH": 2266, "BSTAR": 0.00019762357, "MEAN_MOTION_DOT": 1.074e-05, "MEAN_MOTION_DDOT": 0, "GROUP": "resource"}, "tle": {"line1": "1 64694U 25141A   25334.23717902  .00001074  00000+0  19762-3 0  9999", "line2": "2 64694  98.0401 269.9775 0001436  82.9210 277.2158 14.67567435 22660"}}, "geometry": {"type": "Point", "coordinates": [83.2762894849075, -43.14396426527443]}}, {"type": "Feature", "properties": {"norad_id": 64876, "name": "IONOSFERA-M 3", "group": "resource", "lat": -15.276682719119492, "lon": -60.27709298741304, "alt_km": 825.2679760508527, "timestamp": "2025-12-01T03:58:49.209740+00:00", "meta": {"OBJECT_NAME": "IONOSFERA-M 3", "OBJECT_ID": "2025-155A", "EPOCH": "2025-11-30T21:17:43.083744", "MEAN_MOTION": 14.21436261, "ECCENTRICITY": 0.0002416, "INCLINATION": 98.5768, "RA_OF_ASC_NODE": 297.0899, "ARG_OF_PERICENTER": 78.4024, "MEAN_ANOMALY": 281.7425, "EPHEMERIS_TYPE": 0, "CLASSIFICATION_TYPE": "U", "NORAD_CAT_ID": 64876, "ELEMENT_SET_NO": 999, "REV_AT_EPOCH": 1823, "BSTAR": 6.4057e-05, "MEAN_MOTION_DOT": 9.7e-07, "MEAN_MOTION_DDOT": 0, "GROUP": "resource"}, "tle": {"line1": "1 64876U 25155A   25334.88730421  .00000097  00000+0  64057-4 0  9990", "line2": "2 64876  98.5768 297.0899 0002416  78.4024 281.7425 14.21436261 18231"}}, "geometry": {"type": "Point", "coordinates": [-60.27709298741304, -15.276682719119492]}}, {"type": "Feature", "properties": {"norad_id": 64877, "name": "IONOSFERA-M 4", "group": "resource", "lat": 14.400219094121645, "lon": 119.50082044911316, "alt_km": 821.3783973784193, "timestamp": "2025-12-01T03:58:49.209750+00:00", "meta": {"OBJECT_NAME": "IONOSFERA-M 4", "OBJECT_ID": "2025-155B", "EPOCH": "2025-11-30T20:26:51.743328", "MEAN_MOTION": 14.21437249, "ECCENTRICITY": 0.0001773, "INCLINATION": 98.5764, "RA_OF_ASC_NODE": 296.9753, "ARG_OF_PERICENTER": 75.7189, "MEAN_ANOMALY": 284.4185, "EPHEMERIS_TYPE": 0, "CLASSIFICATION_TYPE": "U", "NORAD_CAT_ID": 64877, "ELEMENT_SET_NO": 999, "REV_AT_EPOCH": 1822, "BSTAR": 6.7775e-05, "MEAN_MOTION_DOT": 1.05e-06, "MEAN_MOTION_DDOT": 0, "GROUP": "resource"}, "tle": {"line1": "1 64877U 25155B   25334.85198777  .00000105  00000+0  67775-4 0  9990", "line2": "2 64877  98.5764 296.9753 0001773  75.7189 284.4185 14.21437249 18221"}}, "geometry": {"type": "Point", "coordinates": [119.50082044911316, 14.400219094121645]}}, {"type": "Feature", "properties": {"norad_id": 64899, "name": "MICROCARB", "group": "resource", "lat": 14.608468856710742, "lon": 48.594839407042485, "alt_km": 666.6860645620563, "timestamp": "2025-12-01T03:58:49.209762+00:00", "meta": {"OBJECT_NAME": "MICROCARB", "OBJECT_ID": "2025-156A", "EPOCH": "2025-11-30T18:07:29.710272", "MEAN_MOTION": 14.72024515, "ECCENTRICITY": 0.0016353, "INCLINATION": 98.0037, "RA_OF_ASC_NODE": 50.2924, "ARG_OF_PERICENTER": 182.0513, "MEAN_ANOMALY": 178.063, "EPHEMERIS_TYPE": 0, "CLASSIFICATION_TYPE": "U", "NORAD_CAT_ID": 64899, "ELEMENT_SET_NO": 999, "REV_AT_EPOCH": 1877, "BSTAR": 0.00013289, "MEAN_MOTION_DOT": 7.86e-06, "MEAN_MOTION_DDOT": 0, "GROUP": "resource"}, "tle": {"line1": "1 64899U 25156A   25334.75520498  .00000786  00000+0  13289-3 0  9998", "line2": "2 64899  98.0037  50.2924 0016353 182.0513 178.0630 14.72024515 18774"}}, "geometry": {"type": "Point", "coordinates": [48.594839407042485, 14.608468856710742]}}, {"type": "Feature", "properties": {"norad_id": 64900, "name": "CO3D 3", "group": "resource", "lat": 17.449908810558618, "lon": -126.89807977540356, "alt_km": 438.34886524298054, "timestamp": "2025-12-01T03:58:49.209772+00:00", "meta": {"OBJECT_NAME": "CO3D 3", "OBJECT_ID": "2025-156B", "EPOCH": "2025-11-29T13:08:11.122944", "MEAN_MOTION": 15.11495615, "ECCENTRICITY": 0.01368669, "INCLINATION": 97.6723, "RA_OF_ASC_NODE": 49.0485, "ARG_OF_PERICENTER": 160.1625, "MEAN_ANOMALY": 200.5002, "EPHEMERIS_TYPE": 0, "CLASSIFICATION_TYPE": "U", "NORAD_CAT_ID": 64900, "ELEMENT_SET_NO": 999, "REV_AT_EPOCH": 1920, "BSTAR": 0.00046350794, "MEAN_MOTION_DOT": 9.779e-05, "MEAN_MOTION_DDOT": 0, "GROUP": "resource"}, "tle": {"line1": "1 64900U 25156B   25333.54735096  .00009779  00000+0  46351-3 0  9996", "line2": "2 64900  97.6723  49.0485 0136866 160.1625 200.5002 15.11495615 19205"}}, "geometry": {"type": "Point", "coordinates": [-126.89807977540356, 17.449908810558618]}}, {"type": "Feature", "properties": {"norad_id": 64901, "name": "CO3D 4", "group": "resource", "lat": -32.25293220160151, "lon": -133.02788290808348, "alt_km": 510.7346912080484, "timestamp": "2025-12-01T03:58:49.209782+00:00", "meta": {"OBJECT_NAME": "CO3D 4", "OBJECT_ID": "2025-156C", "EPOCH": "2025-11-30T20:43:46.450848", "MEAN_MOTION": 15.20205855, "ECCENTRICITY": 0.0001103, "INCLINATION": 97.4351, "RA_OF_ASC_NODE": 51.4012, "ARG_OF_PERICENTER": 245.2947, "MEAN_ANOMALY": 114.8173, "EPHEMERIS_TYPE": 0, "CLASSIFICATION_TYPE": "U", "NORAD_CAT_ID": 64901, "ELEMENT_SET_NO": 999, "REV_AT_EPOCH": 1940, "BSTAR": 0.0003113, "MEAN_MOTION_DOT": 6.678e-05, "MEAN_MOTION_DDOT": 0, "GROUP": "resource"}, "tle": {"line1": "1 64901U 25156C   25334.86373207  .00006678  00000+0  31130-3 0  9999", "line2": "2 64901  97.4351  51.4012 0001103 245.2947 114.8173 15.20205855 19404"}}, "geometry": {"type": "Point", "coordinates": [-133.02788290808348, -32.25293220160151]}}, {"type": "Feature", "properties": {"norad_id": 64902, "name": "CO3D 2", "group": "resource", "lat": 34.38559674620293, "lon": 46.47010316387054, "alt_km": 502.96111192996614, "timestamp": "2025-12-01T03:58:49.209792+00:00", "meta": {"OBJECT_NAME": "CO3D 2", "OBJECT_ID": "2025-156D", "EPOCH": "2025-11-30T19:55:45.690816", "MEAN_MOTION": 15.20197343, "ECCENTRICITY": 9.13e-05, "INCLINATION": 97.435, "RA_OF_ASC_NODE": 51.2667, "ARG_OF_PERICENTER": 115.4606, "MEAN_ANOMALY": 244.6724, "EPHEMERIS_TYPE": 0, "CLASSIFICATION_TYPE": "U", "NORAD_CAT_ID": 64902, "ELEMENT_SET_NO": 999, "REV_AT_EPOCH": 1939, "BSTAR": 0.00033751, "MEAN_MOTION_DOT": 7.245e-05, "MEAN_MOTION_DDOT": 0, "GROUP": "resource"}, "tle": {"line1": "1 64902U 25156D   25334.83038994  .00007245  00000+0  33751-3 0  9990", "line2": "2 64902  97.4350  51.2667 0000913 115.4606 244.6724 15.20197343 19390"}}, "geometry": {"type": "Point", "coordinates": [46.47010316387054, 34.38559674620293]}}, {"type": "Feature", "properties": {"norad_id": 64903, "name": "CO3D 1", "group": "resource", "lat": 33.56089967366866, "lon": 46.627328658719144, "alt_km": 503.1544557651405, "timestamp": "2025-12-01T03:58:49.209802+00:00", "meta": {"OBJECT_NAME": "CO3D 1", "OBJECT_ID": "2025-156E", "EPOCH": "2025-11-30T19:55:58.836576", "MEAN_MOTION": 15.20196329, "ECCENTRICITY": 9.52e-05, "INCLINATION": 97.4349, "RA_OF_ASC_NODE": 51.2668, "ARG_OF_PERICENTER": 120.2885, "MEAN_ANOMALY": 239.8444, "EPHEMERIS_TYPE": 0, "CLASSIFICATION_TYPE": "U", "NORAD_CAT_ID": 64903, "ELEMENT_SET_NO": 999, "REV_AT_EPOCH": 1939, "BSTAR": 0.00035917, "MEAN_MOTION_DOT": 7.714e-05, "MEAN_MOTION_DDOT": 0, "GROUP": "resource"}, "tle": {"line1": "1 64903U 25156E   25334.83054209  .00007714  00000+0  35917-3 0  9995", "line2": "2 64903  97.4349  51.2668 0000952 120.2885 239.8444 15.20196329 19394"}}, "geometry": {"type": "Point", "coordinates": [46.627328658719144, 33.56089967366866]}}]}